{"fetched_at":"2026-07-19T07:04:47.356Z","source":"https://celestrak.org/NORAD/elements/gp.php?GROUP=kuiper&FORMAT=JSON","constellation":"kuiper","records":[{"OBJECT_NAME":"KUIPER-00500","OBJECT_ID":"2026-095U","EPOCH":"2026-07-18T18:27:54.310176","CLASSIFICATION_TYPE":"U","MEAN_MOTION":14.79932271,"ECCENTRICITY":0.000138,"INCLINATION":51.9016,"RA_OF_ASC_NODE":110.9998,"ARG_OF_PERICENTER":50.2537,"MEAN_ANOMALY":309.8547,"EPHEMERIS_TYPE":0,"NORAD_CAT_ID":68882,"ELEMENT_SET_NO":999,"REV_AT_EPOCH":1229,"BSTAR":0.00021832,"MEAN_MOTION_DOT":0.00001443,"MEAN_MOTION_DDOT":0},{"OBJECT_NAME":"KUIPER-00502","OBJECT_ID":"2026-095V","EPOCH":"2026-07-18T20:00:01.999008","CLASSIFICATION_TYPE":"U","MEAN_MOTION":15.19831298,"ECCENTRICITY":0.0005886,"INCLINATION":51.8869,"RA_OF_ASC_NODE":89.7852,"ARG_OF_PERICENTER":52.4669,"MEAN_ANOMALY":236.1308,"EPHEMERIS_TYPE":0,"NORAD_CAT_ID":68883,"ELEMENT_SET_NO":999,"REV_AT_EPOCH":267,"BSTAR":-0.061549,"MEAN_MOTION_DOT":-0.01227103,"MEAN_MOTION_DDOT":0},{"OBJECT_NAME":"KUIPER-00503","OBJECT_ID":"2026-095W","EPOCH":"2026-07-18T03:07:58.312128","CLASSIFICATION_TYPE":"U","MEAN_MOTION":14.79945683,"ECCENTRICITY":0.00008597,"INCLINATION":51.8987,"RA_OF_ASC_NODE":111.3162,"ARG_OF_PERICENTER":101.2283,"MEAN_ANOMALY":258.8776,"EPHEMERIS_TYPE":0,"NORAD_CAT_ID":68884,"ELEMENT_SET_NO":999,"REV_AT_EPOCH":1223,"BSTAR":0.00025926768,"MEAN_MOTION_DOT":0.00001756,"MEAN_MOTION_DDOT":0},{"OBJECT_NAME":"KUIPER-00504","OBJECT_ID":"2026-095X","EPOCH":"2026-07-18T18:20:08.401632","CLASSIFICATION_TYPE":"U","MEAN_MOTION":14.79932854,"ECCENTRICITY":0.0000922,"INCLINATION":51.9012,"RA_OF_ASC_NODE":116.025,"ARG_OF_PERICENTER":91.034,"MEAN_ANOMALY":269.0728,"EPHEMERIS_TYPE":0,"NORAD_CAT_ID":68885,"ELEMENT_SET_NO":999,"REV_AT_EPOCH":1222,"BSTAR":0.000052099,"MEAN_MOTION_DOT":0.00000176,"MEAN_MOTION_DDOT":0},{"OBJECT_NAME":"KUIPER-00505","OBJECT_ID":"2026-095Y","EPOCH":"2026-07-18T17:47:02.152032","CLASSIFICATION_TYPE":"U","MEAN_MOTION":14.79936236,"ECCENTRICITY":0.0000636,"INCLINATION":51.9025,"RA_OF_ASC_NODE":106.1299,"ARG_OF_PERICENTER":93.8349,"MEAN_ANOMALY":266.2686,"EPHEMERIS_TYPE":0,"NORAD_CAT_ID":68886,"ELEMENT_SET_NO":999,"REV_AT_EPOCH":1235,"BSTAR":0.00022619,"MEAN_MOTION_DOT":0.00001504,"MEAN_MOTION_DDOT":0},{"OBJECT_NAME":"KUIPER-00507","OBJECT_ID":"2026-095Z","EPOCH":"2026-07-18T20:00:01.999008","CLASSIFICATION_TYPE":"U","MEAN_MOTION":14.79835171,"ECCENTRICITY":0.0003945,"INCLINATION":51.8994,"RA_OF_ASC_NODE":95.4471,"ARG_OF_PERICENTER":87.9088,"MEAN_ANOMALY":214.2018,"EPHEMERIS_TYPE":0,"NORAD_CAT_ID":68887,"ELEMENT_SET_NO":999,"REV_AT_EPOCH":536,"BSTAR":-0.011374,"MEAN_MOTION_DOT":-0.00085653,"MEAN_MOTION_DDOT":0},{"OBJECT_NAME":"KUIPER-00511","OBJECT_ID":"2026-095AA","EPOCH":"2026-07-18T20:00:01.999008","CLASSIFICATION_TYPE":"U","MEAN_MOTION":15.10283868,"ECCENTRICITY":0.0006963,"INCLINATION":51.8918,"RA_OF_ASC_NODE":90.3172,"ARG_OF_PERICENTER":42.6483,"MEAN_ANOMALY":291.5899,"EPHEMERIS_TYPE":0,"NORAD_CAT_ID":68888,"ELEMENT_SET_NO":999,"REV_AT_EPOCH":206,"BSTAR":-0.0060536,"MEAN_MOTION_DOT":-0.00099307,"MEAN_MOTION_DDOT":0},{"OBJECT_NAME":"KUIPER-00512","OBJECT_ID":"2026-095AB","EPOCH":"2026-07-18T18:31:46.841952","CLASSIFICATION_TYPE":"U","MEAN_MOTION":14.799242,"ECCENTRICITY":0.0000836,"INCLINATION":51.9021,"RA_OF_ASC_NODE":108.4927,"ARG_OF_PERICENTER":108.0263,"MEAN_ANOMALY":252.0791,"EPHEMERIS_TYPE":0,"NORAD_CAT_ID":68889,"ELEMENT_SET_NO":999,"REV_AT_EPOCH":1232,"BSTAR":0.00022518,"MEAN_MOTION_DOT":0.00001495,"MEAN_MOTION_DDOT":0},{"OBJECT_NAME":"KUIPER-00519","OBJECT_ID":"2026-095AC","EPOCH":"2026-07-18T17:10:06.792096","CLASSIFICATION_TYPE":"U","MEAN_MOTION":14.79944899,"ECCENTRICITY":0.0002699,"INCLINATION":51.9032,"RA_OF_ASC_NODE":98.8037,"ARG_OF_PERICENTER":22.6591,"MEAN_ANOMALY":337.449,"EPHEMERIS_TYPE":0,"NORAD_CAT_ID":68890,"ELEMENT_SET_NO":999,"REV_AT_EPOCH":1245,"BSTAR":0.00021757,"MEAN_MOTION_DOT":0.00001438,"MEAN_MOTION_DDOT":0},{"OBJECT_NAME":"KUIPER-00521","OBJECT_ID":"2026-095AD","EPOCH":"2026-07-18T20:00:01.999008","CLASSIFICATION_TYPE":"U","MEAN_MOTION":14.94760345,"ECCENTRICITY":0.0000893,"INCLINATION":51.8963,"RA_OF_ASC_NODE":92.3605,"ARG_OF_PERICENTER":254.1547,"MEAN_ANOMALY":191.9638,"EPHEMERIS_TYPE":0,"NORAD_CAT_ID":68891,"ELEMENT_SET_NO":999,"REV_AT_EPOCH":512,"BSTAR":-0.0028199,"MEAN_MOTION_DOT":-0.00031084,"MEAN_MOTION_DDOT":0},{"OBJECT_NAME":"KUIPER-00524","OBJECT_ID":"2026-095AE","EPOCH":"2026-07-18T16:58:18.208416","CLASSIFICATION_TYPE":"U","MEAN_MOTION":14.76416593,"ECCENTRICITY":0.0002334,"INCLINATION":51.8981,"RA_OF_ASC_NODE":100.1755,"ARG_OF_PERICENTER":112.658,"MEAN_ANOMALY":247.4627,"EPHEMERIS_TYPE":0,"NORAD_CAT_ID":68892,"ELEMENT_SET_NO":999,"REV_AT_EPOCH":1243,"BSTAR":0.00015483,"MEAN_MOTION_DOT":0.00000871,"MEAN_MOTION_DDOT":0},{"OBJECT_NAME":"KUIPER-00370","OBJECT_ID":"2026-098A","EPOCH":"2026-07-18T20:00:01.999008","CLASSIFICATION_TYPE":"U","MEAN_MOTION":15.06727865,"ECCENTRICITY":0.0009861,"INCLINATION":51.88,"RA_OF_ASC_NODE":279.337,"ARG_OF_PERICENTER":282.1837,"MEAN_ANOMALY":62.8893,"EPHEMERIS_TYPE":0,"NORAD_CAT_ID":68919,"ELEMENT_SET_NO":999,"REV_AT_EPOCH":548,"BSTAR":-0.0035095,"MEAN_MOTION_DOT":-0.00052736,"MEAN_MOTION_DDOT":0},{"OBJECT_NAME":"KUIPER-00380","OBJECT_ID":"2026-098B","EPOCH":"2026-07-18T12:00:54.109728","CLASSIFICATION_TYPE":"U","MEAN_MOTION":15.29387357,"ECCENTRICITY":0.0006672,"INCLINATION":51.874,"RA_OF_ASC_NODE":278.565,"ARG_OF_PERICENTER":272.9159,"MEAN_ANOMALY":87.1061,"EPHEMERIS_TYPE":0,"NORAD_CAT_ID":68920,"ELEMENT_SET_NO":999,"REV_AT_EPOCH":1213,"BSTAR":0.00029612649,"MEAN_MOTION_DOT":0.00008215,"MEAN_MOTION_DDOT":0},{"OBJECT_NAME":"KUIPER-00386","OBJECT_ID":"2026-098C","EPOCH":"2026-07-18T20:00:01.999008","CLASSIFICATION_TYPE":"U","MEAN_MOTION":15.20970219,"ECCENTRICITY":0.0003294,"INCLINATION":51.8836,"RA_OF_ASC_NODE":275.3949,"ARG_OF_PERICENTER":10.426,"MEAN_ANOMALY":104.495,"EPHEMERIS_TYPE":0,"NORAD_CAT_ID":68921,"ELEMENT_SET_NO":999,"REV_AT_EPOCH":561,"BSTAR":-0.032593,"MEAN_MOTION_DOT":-0.00684974,"MEAN_MOTION_DDOT":0},{"OBJECT_NAME":"KUIPER-00388","OBJECT_ID":"2026-098D","EPOCH":"2026-07-18T20:00:01.999008","CLASSIFICATION_TYPE":"U","MEAN_MOTION":14.80242343,"ECCENTRICITY":0.0001422,"INCLINATION":51.9473,"RA_OF_ASC_NODE":283.017,"ARG_OF_PERICENTER":336.5195,"MEAN_ANOMALY":192.0009,"EPHEMERIS_TYPE":0,"NORAD_CAT_ID":68922,"ELEMENT_SET_NO":999,"REV_AT_EPOCH":565,"BSTAR":-0.097933,"MEAN_MOTION_DOT":-0.00705913,"MEAN_MOTION_DDOT":0},{"OBJECT_NAME":"KUIPER-00405","OBJECT_ID":"2026-098E","EPOCH":"2026-07-18T20:00:01.999008","CLASSIFICATION_TYPE":"U","MEAN_MOTION":14.87143365,"ECCENTRICITY":0.0007646,"INCLINATION":51.8983,"RA_OF_ASC_NODE":280.7319,"ARG_OF_PERICENTER":286.1259,"MEAN_ANOMALY":317.6837,"EPHEMERIS_TYPE":0,"NORAD_CAT_ID":68923,"ELEMENT_SET_NO":999,"REV_AT_EPOCH":534,"BSTAR":-0.0096534,"MEAN_MOTION_DOT":-0.00086802,"MEAN_MOTION_DDOT":0}]}
