KUIPER-00500            
1 68882U 26095U   26199.76937859  .00001443  00000+0  21832-3 0  9995
2 68882  51.9016 110.9998 0001380  50.2537 309.8547 14.79932271 12292
KUIPER-00502            
1 68883U 26095V   26199.83335647 -.01227103  00000+0 -61549-1 0  9994
2 68883  51.8869  89.7852 0005886  52.4669 236.1308 15.19831298  2675
KUIPER-00503            
1 68884U 26095W   26199.13053602  .00001756  00000+0  25927-3 0  9999
2 68884  51.8987 111.3162 0000859 101.2283 258.8776 14.79945683 12235
KUIPER-00504            
1 68885U 26095X   26199.76398613  .00000176  00000+0  52099-4 0  9999
2 68885  51.9012 116.0250 0000922  91.0340 269.0728 14.79932854 12223
KUIPER-00505            
1 68886U 26095Y   26199.74099713  .00001504  00000+0  22619-3 0  9997
2 68886  51.9025 106.1299 0000636  93.8349 266.2686 14.79936236 12356
KUIPER-00507            
1 68887U 26095Z   26199.83335647 -.00085653  00000+0 -11374-1 0  9990
2 68887  51.8994  95.4471 0003945  87.9088 214.2018 14.79835171  5364
KUIPER-00511            
1 68888U 26095AA  26199.83335647 -.00099307  00000+0 -60536-2 0  9997
2 68888  51.8918  90.3172 0006963  42.6483 291.5899 15.10283868  2068
KUIPER-00512            
1 68889U 26095AB  26199.77206993  .00001495  00000+0  22518-3 0  9990
2 68889  51.9021 108.4927 0000836 108.0263 252.0791 14.79924200 12329
KUIPER-00519            
1 68890U 26095AC  26199.71535639  .00001438  00000+0  21757-3 0  9999
2 68890  51.9032  98.8037 0002699  22.6591 337.4490 14.79944899 12455
KUIPER-00521            
1 68891U 26095AD  26199.83335647 -.00031084  00000+0 -28199-2 0  9998
2 68891  51.8963  92.3605 0000893 254.1547 191.9638 14.94760345  5127
KUIPER-00524            
1 68892U 26095AE  26199.70715519  .00000871  00000+0  15483-3 0  9996
2 68892  51.8981 100.1755 0002334 112.6580 247.4627 14.76416593 12439
KUIPER-00370            
1 68919U 26098A   26199.83335647 -.00052736  00000+0 -35095-2 0  9992
2 68919  51.8800 279.3370 0009861 282.1837  62.8893 15.06727865  5483
KUIPER-00380            
1 68920U 26098B   26199.50062627  .00008215  00000+0  29613-3 0  9994
2 68920  51.8740 278.5650 0006672 272.9159  87.1061 15.29387357 12131
KUIPER-00386            
1 68921U 26098C   26199.83335647 -.00684974  00000+0 -32593-1 0  9999
2 68921  51.8836 275.3949 0003294  10.4260 104.4950 15.20970219  5610
KUIPER-00388            
1 68922U 26098D   26199.83335647 -.00705913  00000+0 -97933-1 0  9996
2 68922  51.9473 283.0170 0001422 336.5195 192.0009 14.80242343  5658
KUIPER-00405            
1 68923U 26098E   26199.83335647 -.00086802  00000+0 -96534-2 0  9993
2 68923  51.8983 280.7319 0007646 286.1259 317.6837 14.87143365  5349
